IRIDIUM 136             
1 42962U 17061H   24079.89206700  .00000219  00000+0  71141-4 0  9991
2 42962  86.4033   7.6301 0001993  94.0014 266.1409 14.34218326337405
